{"type": "FeatureCollection", "features": [ {"type": "Feature", "properties": {"norad_id": 42987, "name": "SKYSAT-C11", "group": "resource", "lat": 30.270854059470416, "lon": 130.8840029270642, "alt_km": 421.0971107186542, "timestamp": "2025-12-23T11:34:47.839480+00:00", "meta": {"OBJECT_NAME": "SKYSAT-C11", "OBJECT_ID": "2017-068A", "EPOCH": "2025-12-22T19:55:58.994688", "MEAN_MOTION": 15.47855461, "ECCENTRICITY": 0.000117, "INCLINATION": 97.4148, "RA_OF_ASC_NODE": 134.575, "ARG_OF_PERICENTER": 96.9665, "MEAN_ANOMALY": 263.1718, "EPHEMERIS_TYPE": 0, "CLASSIFICATION_TYPE": "U", "NORAD_CAT_ID": 42987, "ELEMENT_SET_NO": 999, "REV_AT_EPOCH": 45587, "BSTAR": 0.00044558877, "MEAN_MOTION_DOT": 0.00023113, "MEAN_MOTION_DDOT": 0}, "tle": {"line1": "1 42987U 17068A   25356.83054392  .00023113  00000+0  44559-3 0  9996", "line2": "2 42987  97.4148 134.5750 0001170  96.9665 263.1718 15.47855461455873"}}, "geometry": {"type": "Point", "coordinates": [130.8840029270642, 30.270854059470416]}}, {"type": "Feature", "properties": {"norad_id": 42988, "name": "SKYSAT-C10", "group": "resource", "lat": -52.320652457258745, "lon": -61.35924228743674, "alt_km": 479.4493724541144, "timestamp": "2025-12-23T11:34:47.839489+00:00", "meta": {"OBJECT_NAME": "SKYSAT-C10", "OBJECT_ID": "2017-068B", "EPOCH": "2025-12-23T02:43:49.664928", "MEAN_MOTION": 15.32271629, "ECCENTRICITY": 0.0005354, "INCLINATION": 97.4268, "RA_OF_ASC_NODE": 127.9949, "ARG_OF_PERICENTER": 75.3201, "MEAN_ANOMALY": 284.8633, "EPHEMERIS_TYPE": 0, "CLASSIFICATION_TYPE": "U", "NORAD_CAT_ID": 42988, "ELEMENT_SET_NO": 999, "REV_AT_EPOCH": 45538, "BSTAR": 0.00038089, "MEAN_MOTION_DOT": 0.000118, "MEAN_MOTION_DDOT": 0}, "tle": {"line1": "1 42988U 17068B   25357.11376927  .00011800  00000+0  38089-3 0  9991", "line2": "2 42988  97.4268 127.9949 0005354  75.3201 284.8633 15.32271629455382"}}, "geometry": {"type": "Point", "coordinates": [-61.35924228743674, -52.320652457258745]}}, {"type": "Feature", "properties": {"norad_id": 42989, "name": "SKYSAT-C9", "group": "resource", "lat": -54.58743040423195, "lon": -62.73899321761415, "alt_km": 471.19954269891514, "timestamp": "2025-12-23T11:34:47.839498+00:00", "meta": {"OBJECT_NAME": "SKYSAT-C9", "OBJECT_ID": "2017-068C", "EPOCH": "2025-12-23T02:44:36.961152", "MEAN_MOTION": 15.36299189, "ECCENTRICITY": 0.0010376, "INCLINATION": 97.4198, "RA_OF_ASC_NODE": 127.4515, "ARG_OF_PERICENTER": 54.6516, "MEAN_ANOMALY": 305.5696, "EPHEMERIS_TYPE": 0, "CLASSIFICATION_TYPE": "U", "NORAD_CAT_ID": 42989, "ELEMENT_SET_NO": 999, "REV_AT_EPOCH": 45567, "BSTAR": 0.00038781, "MEAN_MOTION_DOT": 0.00013674, "MEAN_MOTION_DDOT": 0}, "tle": {"line1": "1 42989U 17068C   25357.11431668  .00013674  00000+0  38781-3 0  9996", "line2": "2 42989  97.4198 127.4515 0010376  54.6516 305.5696 15.36299189455675"}}, "geometry": {"type": "Point", "coordinates": [-62.73899321761415, -54.58743040423195]}}, {"type": "Feature", "properties": {"norad_id": 42990, "name": "SKYSAT-C8", "group": "resource", "lat": 80.76554353996285, "lon": 74.15456230955803, "alt_km": 459.6670424326412, "timestamp": "2025-12-23T11:34:47.839507+00:00", "meta": {"OBJECT_NAME": "SKYSAT-C8", "OBJECT_ID": "2017-068D", "EPOCH": "2025-12-22T22:40:52.726944", "MEAN_MOTION": 15.33134527, "ECCENTRICITY": 0.0001006, "INCLINATION": 97.429, "RA_OF_ASC_NODE": 126.9913, "ARG_OF_PERICENTER": 287.2587, "MEAN_ANOMALY": 72.8545, "EPHEMERIS_TYPE": 0, "CLASSIFICATION_TYPE": "U", "NORAD_CAT_ID": 42990, "ELEMENT_SET_NO": 999, "REV_AT_EPOCH": 45527, "BSTAR": 0.00038454, "MEAN_MOTION_DOT": 0.00012237, "MEAN_MOTION_DDOT": 0}, "tle": {"line1": "1 42990U 17068D   25356.94505471  .00012237  00000+0  38454-3 0  9993", "line2": "2 42990  97.4290 126.9913 0001006 287.2587  72.8545 15.33134527455272"}}, "geometry": {"type": "Point", "coordinates": [74.15456230955803, 80.76554353996285]}}, {"type": "Feature", "properties": {"norad_id": 42991, "name": "SKYSAT-C7", "group": "resource", "lat": -79.9920179891498, "lon": 176.2536310610038, "alt_km": 476.9485054706629, "timestamp": "2025-12-23T11:34:47.839515+00:00", "meta": {"OBJECT_NAME": "SKYSAT-C7", "OBJECT_ID": "2017-068E", "EPOCH": "2025-12-22T20:16:20.402976", "MEAN_MOTION": 15.32529052, "ECCENTRICITY": 0.0006966, "INCLINATION": 97.43, "RA_OF_ASC_NODE": 127.9237, "ARG_OF_PERICENTER": 25.638, "MEAN_ANOMALY": 334.5206, "EPHEMERIS_TYPE": 0, "CLASSIFICATION_TYPE": "U", "NORAD_CAT_ID": 42991, "ELEMENT_SET_NO": 999, "REV_AT_EPOCH": 45532, "BSTAR": 0.00038156, "MEAN_MOTION_DOT": 0.0001192, "MEAN_MOTION_DDOT": 0}, "tle": {"line1": "1 42991U 17068E   25356.84468059  .00011920  00000+0  38156-3 0  9990", "line2": "2 42991  97.4300 127.9237 0006966  25.6380 334.5206 15.32529052455328"}}, "geometry": {"type": "Point", "coordinates": [176.2536310610038, -79.9920179891498]}}, {"type": "Feature", "properties": {"norad_id": 42992, "name": "SKYSAT-C6", "group": "resource", "lat": 1.0996028864650478, "lon": 128.84971658129575, "alt_km": 471.63088972516834, "timestamp": "2025-12-23T11:34:47.839524+00:00", "meta": {"OBJECT_NAME": "SKYSAT-C6", "OBJECT_ID": "2017-068F", "EPOCH": "2025-12-22T19:53:45.861792", "MEAN_MOTION": 15.31684652, "ECCENTRICITY": 0.00048691, "INCLINATION": 97.4328, "RA_OF_ASC_NODE": 128.3379, "ARG_OF_PERICENTER": 55.1804, "MEAN_ANOMALY": 304.9894, "EPHEMERIS_TYPE": 0, "CLASSIFICATION_TYPE": "U", "NORAD_CAT_ID": 42992, "ELEMENT_SET_NO": 999, "REV_AT_EPOCH": 45530, "BSTAR": 0.00035608975, "MEAN_MOTION_DOT": 0.00010824, "MEAN_MOTION_DDOT": 0}, "tle": {"line1": "1 42992U 17068F   25356.82900303  .00010824  00000+0  35609-3 0  9994", "line2": "2 42992  97.4328 128.3379 0004869  55.1804 304.9894 15.31684652455309"}}, "geometry": {"type": "Point", "coordinates": [128.84971658129575, 1.0996028864650478]}}, {"type": "Feature", "properties": {"norad_id": 43111, "name": "CARTOSAT-2F", "group": "resource", "lat": -8.90850515412378, "lon": 56.11745558660088, "alt_km": 512.8756954086957, "timestamp": "2025-12-23T11:34:47.839533+00:00", "meta": {"OBJECT_NAME": "CARTOSAT-2F", "OBJECT_ID": "2018-004A", "EPOCH": "2025-12-23T03:42:56.092032", "MEAN_MOTION": 15.19219608, "ECCENTRICITY": 0.0001525, "INCLINATION": 97.4302, "RA_OF_ASC_NODE": 54.623, "ARG_OF_PERICENTER": 111.6706, "MEAN_ANOMALY": 248.4691, "EPHEMERIS_TYPE": 0, "CLASSIFICATION_TYPE": "U", "NORAD_CAT_ID": 43111, "ELEMENT_SET_NO": 999, "REV_AT_EPOCH": 44060, "BSTAR": 0.00020277, "MEAN_MOTION_DOT": 4.202e-05, "MEAN_MOTION_DDOT": 0}, "tle": {"line1": "1 43111U 18004A   25357.15481588  .00004202  00000+0  20277-3 0  9993", "line2": "2 43111  97.4302  54.6230 0001525 111.6706 248.4691 15.19219608440602"}}, "geometry": {"type": "Point", "coordinates": [56.11745558660088, -8.90850515412378]}}, {"type": "Feature", "properties": {"norad_id": 43259, "name": "GAOFEN-1 02", "group": "resource", "lat": -80.08166054533314, "lon": -179.05196442144538, "alt_km": 647.8654395029225, "timestamp": "2025-12-23T11:34:47.839542+00:00", "meta": {"OBJECT_NAME": "GAOFEN-1 02", "OBJECT_ID": "2018-031A", "EPOCH": "2025-12-23T03:52:50.784096", "MEAN_MOTION": 14.7643493, "ECCENTRICITY": 0.0002474, "INCLINATION": 98.0793, "RA_OF_ASC_NODE": 54.9545, "ARG_OF_PERICENTER": 177.8032, "MEAN_ANOMALY": 182.3189, "EPHEMERIS_TYPE": 0, "CLASSIFICATION_TYPE": "U", "NORAD_CAT_ID": 43259, "ELEMENT_SET_NO": 999, "REV_AT_EPOCH": 41672, "BSTAR": 0.00010509, "MEAN_MOTION_DOT": 6.79e-06, "MEAN_MOTION_DDOT": 0}, "tle": {"line1": "1 43259U 18031A   25357.16169889  .00000679  00000+0  10509-3 0  9995", "line2": "2 43259  98.0793  54.9545 0002474 177.8032 182.3189 14.76434930416721"}}, "geometry": {"type": "Point", "coordinates": [-179.05196442144538, -80.08166054533314]}}, {"type": "Feature", "properties": {"norad_id": 43260, "name": "GAOFEN-1 03", "group": "resource", "lat": 19.903763352612806, "lon": 52.203234631644975, "alt_km": 641.1338034392375, "timestamp": "2025-12-23T11:34:47.839551+00:00", "meta": {"OBJECT_NAME": "GAOFEN-1 03", "OBJECT_ID": "2018-031B", "EPOCH": "2025-12-23T04:58:59.350368", "MEAN_MOTION": 14.764575, "ECCENTRICITY": 0.0001704, "INCLINATION": 98.0784, "RA_OF_ASC_NODE": 54.8761, "ARG_OF_PERICENTER": 266.0912, "MEAN_ANOMALY": 94.0103, "EPHEMERIS_TYPE": 0, "CLASSIFICATION_TYPE": "U", "NORAD_CAT_ID": 43260, "ELEMENT_SET_NO": 999, "REV_AT_EPOCH": 41672, "BSTAR": 0.00013718, "MEAN_MOTION_DOT": 9.03e-06, "MEAN_MOTION_DDOT": 0}, "tle": {"line1": "1 43260U 18031B   25357.20763137  .00000903  00000+0  13718-3 0  9993", "line2": "2 43260  98.0784  54.8761 0001704 266.0912  94.0103 14.76457500416728"}}, "geometry": {"type": "Point", "coordinates": [52.203234631644975, 19.903763352612806]}}, {"type": "Feature", "properties": {"norad_id": 43262, "name": "GAOFEN-1 04", "group": "resource", "lat": 30.18590362885565, "lon": -119.93873089429593, "alt_km": 639.1065062688185, "timestamp": "2025-12-23T11:34:47.839560+00:00", "meta": {"OBJECT_NAME": "GAOFEN-1 04", "OBJECT_ID": "2018-031D", "EPOCH": "2025-12-23T04:23:58.250112", "MEAN_MOTION": 14.76424937, "ECCENTRICITY": 5.88e-05, "INCLINATION": 98.0794, "RA_OF_ASC_NODE": 55.0224, "ARG_OF_PERICENTER": 57.7863, "MEAN_ANOMALY": 302.3403, "EPHEMERIS_TYPE": 0, "CLASSIFICATION_TYPE": "U", "NORAD_CAT_ID": 43262, "ELEMENT_SET_NO": 999, "REV_AT_EPOCH": 41671, "BSTAR": 0.00010096, "MEAN_MOTION_DOT": 6.5e-06, "MEAN_MOTION_DDOT": 0}, "tle": {"line1": "1 43262U 18031D   25357.18331308  .00000650  00000+0  10096-3 0  9998", "line2": "2 43262  98.0794  55.0224 0000588  57.7863 302.3403 14.76424937416712"}}, "geometry": {"type": "Point", "coordinates": [-119.93873089429593, 30.18590362885565]}}]}